{"fetched_at":"2026-03-29T16:36:15Z","count":15609,"tles":[{"name":"STARLINK-32730","line1":"1 62447U 24251R   26087.71231884  .00031975  00000+0  10866-2 0  9991","line2":"2 62447  53.1579 246.7429 0000744  74.6016 285.5067 15.30214636 70863","category":"Starlink"}]}